SKYSAT-A                
1 39418U 13066C   26114.01931263  .00002667  00000+0  15530-3 0  9997
2 39418  97.3867 165.1411 0022796 138.8428 221.4528 15.12650859680297
SKYSAT-B                
1 40072U 14037D   26114.46196631  .00001098  00000+0  12666-3 0  9999
2 40072  98.3798  70.3853 0007016  91.7875 268.4143 14.87879494637977
SKYSAT-C1               
1 41601U 16040C   26114.52942743  .00006863  00000+0  20187-3 0  9996
2 41601  96.9622 149.1797 0002288 168.6061 191.5236 15.35376123549634
SKYSAT-C4               
1 41771U 16058B   26114.54036775  .00013134  00000+0  26259-3 0  9999
2 41771  96.9227 138.6127 0003579  97.4461 262.7197 15.46898684537176
SKYSAT-C5               
1 41772U 16058C   26114.42069909  .00006173  00000+0  19180-3 0  9992
2 41772  97.0530 157.4759 0004913 115.1644 245.0109 15.33675851535507
SKYSAT-C2               
1 41773U 16058D   26114.50814266  .00009336  00000+0  22953-3 0  9992
2 41773  97.0224 138.6613 0001850 204.7337 155.3822 15.40839230536786
SKYSAT-C3               
1 41774U 16058E   26114.54279154  .00016894  00000+0  29965-3 0  9995
2 41774  96.9101 147.5161 0002702 104.6517 255.5035 15.50293948537793
SKYSAT-C11              
1 42987U 17068A   26114.37496882  .00023906  00000+0  35644-3 0  9997
2 42987  97.4284 261.0030 0001451 142.6694 217.4661 15.55086773474875
SKYSAT-C10              
1 42988U 17068B   26114.35161273  .00007644  00000+0  23725-3 0  9997
2 42988  97.4425 250.7394 0001585 111.9530 248.1881 15.33668695474103
SKYSAT-C9               
1 42989U 17068C   26114.33854198  .00010580  00000+0  26514-3 0  9993
2 42989  97.4347 251.1624 0007717 338.2765  21.8153 15.40215531474467
SKYSAT-C8               
1 42990U 17068D   26114.33728980  .00009037  00000+0  26116-3 0  9997
2 42990  97.4438 250.3246 0001200 110.2287 249.9085 15.35874208474046
SKYSAT-C7               
1 42991U 17068E   26114.32886767  .00008996  00000+0  26040-3 0  9994
2 42991  97.4452 251.3023 0004733 304.9869  55.0930 15.35816933474102
SKYSAT-C6               
1 42992U 17068F   26114.32783581  .00008099  00000+0  25270-3 0  9993
2 42992  97.4485 251.4481 0001967  10.3839 349.7443 15.33484856474069
SKYSAT-C12              
1 43797U 18099AR  26114.50657895  .00013166  00000+0  26076-3 0  9996
2 43797  96.9314 139.9600 0003834  23.4701 336.6724 15.47171952413558
SKYSAT-C13              
1 43802U 18099AW  26114.40811053  .00132691  00000+0  51209-3 0  9991
2 43802  96.9268 162.4386 0003753 101.5176 258.6518 15.86929579414395
FLOCK 4Q-16             
1 58271U 23174R   26114.19416338  .00016131  00000+0  32175-3 0  9991
2 58271  97.3820 201.1526 0005393  11.0453 349.0914 15.46927803137225
FLOCK 4Q-11             
1 58273U 23174T   26114.18916552  .00018483  00000+0  36262-3 0  9998
2 58273  97.3862 201.6835 0005074   9.3253 350.8090 15.47381259137231
FLOCK 4Q-36             
1 58274U 23174U   26114.23880613  .00029330  00000+0  45144-3 0  9995
2 58274  97.3838 204.8221 0005006 339.0830  21.0218 15.54158998137440
FLOCK 4Q-28             
1 58280U 23174AA  26114.19369475  .00021965  00000+0  36881-3 0  9999
2 58280  97.3878 203.7568 0003927 348.6477  11.4686 15.51798348137365
FLOCK 4Q-27             
1 58282U 23174AC  26114.19158304  .00022313  00000+0  37609-3 0  9995
2 58282  97.3809 203.2499 0003694 348.8588  11.2582 15.51688601137379
FLOCK 4Q-26             
1 58284U 23174AE  26114.23731264  .00026031  00000+0  40598-3 0  9996
2 58284  97.3866 204.9026 0004742 350.1970   9.9190 15.53819132137448
FLOCK 4Q-31             
1 58285U 23174AF  26114.21056704  .00029646  00000+0  46255-3 0  9995
2 58285  97.3899 204.5253 0004465 349.0429  11.0726 15.53784219137391
FLOCK 4Q-30             
1 58286U 23174AG  26114.19245461  .00028831  00000+0  44692-3 0  9991
2 58286  97.3924 204.7153 0003169 349.1552  10.9633 15.53974975137407
PELICAN-1               
1 58296U 23174AS  26114.41642987  .00160483  00000+0  13034-2 0  9996
2 58296  97.3987 211.4542 0004201 151.4373 208.7120 15.70213772137719
FLOCK 4Q-29             
1 58304U 23174BA  26114.19580064  .00024583  00000+0  40294-3 0  9997
2 58304  97.3923 204.2121 0004055 335.6576  24.4485 15.52451010137378
FLOCK 4Q-22             
1 58306U 23174BC  26114.19857512  .00029337  00000+0  42751-3 0  9996
2 58306  97.3809 204.5408 0002992 333.0481  27.0618 15.55669189137467
FLOCK 4Q-33             
1 58308U 23174BE  26114.21749742  .00027130  00000+0  41510-3 0  9997
2 58308  97.3847 204.4417 0004237 329.8494  30.2516 15.54342320137446
FLOCK 4Q-35             
1 58309U 23174BF  26114.49344979  .00026810  00000+0  42582-3 0  9995
2 58309  97.3870 204.8291 0004057 345.2184  14.8949 15.53311606137467
FLOCK 4Q-7              
1 58318U 23174BQ  26114.23752613  .00024376  00000+0  40335-3 0  9994
2 58318  97.3897 204.0371 0004731 333.4060  26.6949 15.52184178137370
FLOCK 4Q-2              
1 58320U 23174BS  26114.49442747  .00017989  00000+0  35433-3 0  9994
2 58320  97.3825 201.7602 0004603 338.8769  21.2291 15.47275324137298
FLOCK 4Q-9              
1 58322U 23174BU  26114.52138448  .00021758  00000+0  42995-3 0  9990
2 58322  97.3861 201.8355 0004636 339.5263  20.5800 15.47142176137284
FLOCK 4Q-4              
1 58327U 23174BZ  26114.53982968  .00017265  00000+0  35059-3 0  9991
2 58327  97.3817 201.1607 0005055  10.8956 349.2402 15.46393992137267
FLOCK 4Q-13             
1 58328U 23174CA  26114.23164200  .00018609  00000+0  34163-3 0  9998
2 58328  97.3985 203.5696 0005218 358.8578   1.2660 15.49294311137319
FLOCK 4BE-18            
1 60480U 24149N   26114.18332586  .00014564  00000+0  36580-3 0  9992
2 60480  97.3728 197.4220 0005165  99.7269 260.4561 15.40079109 93990
FLOCK 4BE-7             
1 60481U 24149P   26114.45356613  .00018826  00000+0  50383-3 0  9992
2 60481  97.3751 197.1573 0004380 103.9527 256.2205 15.38075349 93984
FLOCK 4BE-26            
1 60484U 24149S   26114.22113433  .00115459  00000+0  17251-2 0  9997
2 60484  97.3679 198.0756 0003680 144.2575 215.8926 15.54618320 94041
FLOCK 4BE-36            
1 60486U 24149U   26114.18589815  .00014289  00000+0  34839-3 0  9996
2 60486  97.3731 198.0391 0005225 107.1716 253.0103 15.40986911 94038
FLOCK 4BE-25            
1 60487U 24149V   26114.22051238  .00010772  00000+0  29588-3 0  9993
2 60487  97.3793 197.0643 0003870 103.2644 256.9033 15.37403214 93946
FLOCK 4BE-31            
1 60488U 24149W   26114.19319859  .00016882  00000+0  39753-3 0  9999
2 60488  97.3796 198.7668 0004142 109.2807 250.8889 15.42007510 94055
FLOCK 4BE-20            
1 60489U 24149X   26114.22167796  .00011652  00000+0  32796-3 0  9995
2 60489  97.3695 196.0816 0005334 105.3832 254.8002 15.36613965 93925
FLOCK 4BE-23            
1 60490U 24149Y   26114.45959868  .00011573  00000+0  32947-3 0  9991
2 60490  97.3779 196.6664 0005178 110.6254 249.5546 15.36261441 93944
FLOCK 4BE-15            
1 60491U 24149Z   26114.19257670  .00084132  00000+0  15771-2 0  9991
2 60491  97.3700 198.0216 0005815 176.5835 183.5456 15.48342572 94049
FLOCK 4BE-17            
1 60492U 24149AA  26114.18855771  .00013168  00000+0  35220-3 0  9990
2 60492  97.3773 197.1982 0004551 103.7146 256.4606 15.38172978 93959
FLOCK 4BE-22            
1 60494U 24149AC  26114.21743780  .00013541  00000+0  34696-3 0  9993
2 60494  97.3729 197.3374 0005134 109.3150 250.8651 15.39485033 93996
FLOCK 4BE-34            
1 60495U 24149AD  26114.17071853  .00013238  00000+0  33840-3 0  9997
2 60495  97.3774 198.0754 0005441 115.4884 244.6925 15.39561837 94016
FLOCK 4BE-32            
1 60497U 24149AF  26114.23424309  .00013451  00000+0  33557-3 0  9996
2 60497  97.3718 197.6566 0005382 113.8778 246.3033 15.40302344 94028
FLOCK 4BE-30            
1 60499U 24149AH  26114.17279088  .00068509  00000+0  14250-2 0  9995
2 60499  97.3773 198.3738 0003923 169.9374 190.1955 15.45389752 93406
FLOCK 4BE-11            
1 60501U 24149AK  26114.19347704  .00015221  00000+0  36896-3 0  9996
2 60501  97.3701 197.7917 0005380 113.5521 246.6292 15.41146832 94038
FLOCK 4BE-24            
1 60505U 24149AP  26114.17932244  .00016860  00000+0  40990-3 0  9997
2 60505  97.3714 198.0228 0005539 121.8722 238.3064 15.41033675 94042
TANAGER-1               
1 60507U 24149AR  26114.26092176  .00013539  00000+0  29634-3 0  9992
2 60507  97.3469 208.2280 0007515 134.9103 225.2756 15.44222176 94713
FLOCK 4BE-29            
1 60509U 24149AT  26114.23195777  .00015160  00000+0  35339-3 0  9993
2 60509  97.3803 199.3690 0004335 126.5762 233.5884 15.42335098 94098
FLOCK 4BE-2             
1 60511U 24149AV  26114.53730816  .00040356  00000+0  78704-3 0  9996
2 60511  97.3816 200.5376 0004934 127.1918 232.9783 15.47397183 94196
FLOCK 4BE-13            
1 60512U 24149AW  26114.45938402  .00012527  00000+0  31171-3 0  9995
2 60512  97.3714 198.3742 0005596 106.2722 253.9141 15.40398071 94091
FLOCK 4BE-27            
1 60513U 24149AX  26114.18161635  .00007528  00000+0  23490-3 0  9992
2 60513  97.3823 196.0466 0005531 127.3198 232.8549 15.33488638 93864
FLOCK 4BE-9             
1 60514U 24149AY  26114.22253244  .00012751  00000+0  33059-3 0  9992
2 60514  97.3788 198.0404 0004488 128.1336 232.0314 15.39141031 94011
FLOCK 4BE-6             
1 60516U 24149BA  26114.14616441  .00012554  00000+0  33691-3 0  9990
2 60516  97.3786 197.4174 0005212 127.0407 233.1316 15.38077610 93968
FLOCK 4BE-14            
1 60517U 24149BB  26114.17605301  .00013351  00000+0  34418-3 0  9991
2 60517  97.3694 197.5433 0006232 126.6221 233.5598 15.39296247 94011
FLOCK 4BE-1             
1 60518U 24149BC  26114.18097752  .00013716  00000+0  33678-3 0  9990
2 60518  97.3776 198.6385 0005798 126.9832 233.1946 15.40778612 94058
FLOCK 4BE-28            
1 60519U 24149BD  26114.46889051  .00015520  00000+0  35382-3 0  9992
2 60519  97.3744 199.4916 0005817 122.5528 237.6282 15.42988044 94156
